ALOS-2                  
1 39766U 14029A   26079.53974597  .00000699  00000+0  10059-3 0  9991
2 39766  97.9196 177.9796 0001773 109.0425 251.0979 14.79410984638477
YAOGAN-29               
1 41038U 15069A   26079.58997475  .00000449  00000+0  61882-4 0  9990
2 41038  98.0125 108.0478 0001201  20.1432 339.9828 14.83007749557492
ASTRO-H (HITOMI)        
1 41337U 16012A   26079.60689028  .00002918  00000+0  16909-3 0  9998
2 41337  30.9992 286.0932 0009603  80.9930 279.1794 15.10071937553881
HXMT (HUIYAN)           
1 42758U 17034A   26079.37456801  .00004210  00000+0  21458-3 0  9998
2 42758  43.0149 317.2648 0032934 300.9726  58.7888 15.17597604484160
SAOCOM 1A               
1 43641U 18076A   26079.62971709  .00000565  00000+0  77522-4 0  9997
2 43641  97.8891 267.6479 0001513  86.9004 273.2382 14.82152914402987
H-2A R/B                
1 43682U 18084L   26079.18319397  .00012444  00000+0  29373-3 0  9990
2 43682  98.8714 298.8177 0024556 349.1904  10.8807 15.41759166407398
SAOCOM 1B               
1 46265U 20059A   26079.59342133 -.00000021  00000+0  39429-5 0  9998
2 46265  97.8890 266.7099 0001442  89.3060 270.8319 14.82145232300366
CSS (TIANHE)            
1 48274U 21035A   26079.59211283  .00022909  00000+0  26582-3 0  9998
2 48274  41.4664 141.7960 0005628 341.6757  18.3879 15.61218124279313
COSMOS 2550             
1 48865U 21056A   26079.53740851 -.00000190  00000+0  42624-7 0  9997
2 48865  67.1449   8.0687 0008198 268.9621  91.0595 15.33831834265127
CZ-2C R/B               
1 52794U 22058K   26079.50348979  .00034137  00000+0  48558-3 0  9993
2 52794  50.1873 262.6290 0041869 246.9596 112.6957 15.54961711211813
CZ-2C R/B               
1 54039U 22132E   26079.45214777  .00030361  00000+0  33517-3 0  9996
2 54039  97.2959  83.1035 0019425  57.1661 303.1464 15.62785581192057
GSLV R/B                
1 54149U 22138AN  26079.48429572  .00002185  00000+0  18718-3 0  9997
2 54149  87.3870 162.7491 0023942 110.7422 249.6378 14.96840331185546
